[{"OBJECT_NAME":"STARLINK-35402","OBJECT_ID":"2025-235X","EPOCH":"2026-03-09T18:04:52.963392","MEAN_MOTION":15.30201306,"ECCENTRICITY":0.00010897,"INCLINATION":53.1595,"RA_OF_ASC_NODE":244.7968,"ARG_OF_PERICENTER":68.6108,"MEAN_ANOMALY":291.5009,"EPHEMERIS_TYPE":0,"CLASSIFICATION_TYPE":"U","NORAD_CAT_ID":66079,"ELEMENT_SET_NO":999,"REV_AT_EPOCH":2293,"BSTAR":0.00073535454,"MEAN_MOTION_DOT":0.00021484,"MEAN_MOTION_DDOT":0},{"OBJECT_NAME":"CZ-2C R\/B","OBJECT_ID":"2014-014B","EPOCH":"2026-03-09T23:01:00.862464","MEAN_MOTION":15.34922702,"ECCENTRICITY":0.00700559,"INCLINATION":98.3314,"RA_OF_ASC_NODE":172.135,"ARG_OF_PERICENTER":276.2597,"MEAN_ANOMALY":83.0667,"EPHEMERIS_TYPE":0,"CLASSIFICATION_TYPE":"U","NORAD_CAT_ID":39625,"ELEMENT_SET_NO":999,"REV_AT_EPOCH":65564,"BSTAR":0.0004934259,"MEAN_MOTION_DOT":0.00018031,"MEAN_MOTION_DDOT":0}]
